IXPE                    
1 49954U 21121A   24065.91667824  .00010050  00000+0  78516-3 0  9993
2 49954   0.2307  78.9218 0009593 189.3755 314.2033 14.96744079122398
